[{"OBJECT_NAME":"NUSAT-44 (MARIA MITCHELL)","OBJECT_ID":"2024-043AA","EPOCH":"2026-03-09T22:12:18.524160","MEAN_MOTION":15.29764305,"ECCENTRICITY":0.0007331,"INCLINATION":97.5299,"RA_OF_ASC_NODE":207.7691,"ARG_OF_PERICENTER":214.9017,"MEAN_ANOMALY":145.1743,"EPHEMERIS_TYPE":0,"CLASSIFICATION_TYPE":"U","NORAD_CAT_ID":59122,"ELEMENT_SET_NO":999,"REV_AT_EPOCH":11209,"BSTAR":0.00061063193,"MEAN_MOTION_DOT":0.00017562,"MEAN_MOTION_DDOT":0},{"OBJECT_NAME":"STARLINK-35661","OBJECT_ID":"2025-257H","EPOCH":"2026-03-09T17:33:34.030368","MEAN_MOTION":15.30203999,"ECCENTRICITY":9.818e-5,"INCLINATION":53.1605,"RA_OF_ASC_NODE":216.5656,"ARG_OF_PERICENTER":88.2084,"MEAN_ANOMALY":271.9029,"EPHEMERIS_TYPE":0,"CLASSIFICATION_TYPE":"U","NORAD_CAT_ID":66387,"ELEMENT_SET_NO":999,"REV_AT_EPOCH":1974,"BSTAR":0.00099652627,"MEAN_MOTION_DOT":0.00029275,"MEAN_MOTION_DDOT":0}]
